{
  "type": "FeatureCollection",
  "features": [
    {
      "type": "Feature",
      "properties": {
        "norad_id": 66794,
        "name": "STARLINK-36062",
        "group": "last-30-days",
        "lat": 11.529383126250918,
        "lon": -131.1155217021651,
        "alt_km": 356.066107127348,
        "timestamp": "2025-12-18T14:52:06.781376+00:00",
        "meta_object_name": "STARLINK-36062",
        "meta_object_id": "2025-278D",
        "meta_epoch": "2025-12-18T06:00:02.999808",
        "meta_mean_motion": 15.72018056,
        "meta_eccentricity": 0.00014745,
        "meta_inclination": 42.9994,
        "meta_ra_of_asc_node": 218.4688,
        "meta_arg_of_pericenter": 276.8674,
        "meta_mean_anomaly": 167.7177,
        "meta_ephemeris_type": 0,
        "meta_classification_type": "U",
        "meta_norad_cat_id": 66794,
        "meta_element_set_no": 999,
        "meta_rev_at_epoch": 384,
        "meta_bstar": -0.016335199,
        "meta_mean_motion_dot": -0.01950552,
        "meta_mean_motion_ddot": 0,
        "tle_line1": "1 66794U 25278D   25352.25003472 -.01950552  00000+0 -16335-1 0  9993",
        "tle_line2": "2 66794  42.9994 218.4688 0001474 276.8674 167.7177 15.72018056  3840"
      },
      "geometry": {
        "type": "Point",
        "coordinates": [
          -131.1155217021651,
          11.529383126250918
        ]
      }
    },
    {
      "type": "Feature",
      "properties": {
        "norad_id": 66795,
        "name": "STARLINK-36047",
        "group": "last-30-days",
        "lat": 14.065102352677028,
        "lon": -128.17200402651818,
        "alt_km": 355.813313101713,
        "timestamp": "2025-12-18T14:52:06.781386+00:00",
        "meta_object_name": "STARLINK-36047",
        "meta_object_id": "2025-278E",
        "meta_epoch": "2025-12-18T06:00:02.999808",
        "meta_mean_motion": 15.72020402,
        "meta_eccentricity": 0.00016904,
        "meta_inclination": 42.999,
        "meta_ra_of_asc_node": 218.4604,
        "meta_arg_of_pericenter": 275.7832,
        "meta_mean_anomaly": 172.6312,
        "meta_ephemeris_type": 0,
        "meta_classification_type": "U",
        "meta_norad_cat_id": 66795,
        "meta_element_set_no": 999,
        "meta_rev_at_epoch": 374,
        "meta_bstar": -0.016347985,
        "meta_mean_motion_dot": -0.01952252,
        "meta_mean_motion_ddot": 0,
        "tle_line1": "1 66795U 25278E   25352.25003472 -.01952252  00000+0 -16348-1 0  9997",
        "tle_line2": "2 66795  42.9990 218.4604 0001690 275.7832 172.6312 15.72020402  3742"
      },
      "geometry": {
        "type": "Point",
        "coordinates": [
          -128.17200402651818,
          14.065102352677028
        ]
      }
    },
    {
      "type": "Feature",
      "properties": {
        "norad_id": 66796,
        "name": "STARLINK-35964",
        "group": "last-30-days",
        "lat": 1.9891113306206654,
        "lon": 32.78425575754296,
        "alt_km": 327.66004193115623,
        "timestamp": "2025-12-18T14:52:06.781396+00:00",
        "meta_object_name": "STARLINK-35964",
        "meta_object_id": "2025-278F",
        "meta_epoch": "2025-12-18T06:00:02.999808",
        "meta_mean_motion": 15.80906423,
        "meta_eccentricity": 0.00019291,
        "meta_inclination": 42.9928,
        "meta_ra_of_asc_node": 217.1827,
        "meta_arg_of_pericenter": 269.9486,
        "meta_mean_anomaly": 321.6613,
        "meta_ephemeris_type": 0,
        "meta_classification_type": "U",
        "meta_norad_cat_id": 66796,
        "meta_element_set_no": 999,
        "meta_rev_at_epoch": 368,
        "meta_bstar": -0.0003568901,
        "meta_mean_motion_dot": -0.00071308,
        "meta_mean_motion_ddot": 0,
        "tle_line1": "1 66796U 25278F   25352.25003472 -.00071308  00000+0 -35689-3 0  9992",
        "tle_line2": "2 66796  42.9928 217.1827 0001929 269.9486 321.6613 15.80906423  3680"
      },
      "geometry": {
        "type": "Point",
        "coordinates": [
          32.78425575754296,
          1.9891113306206654
        ]
      }
    },
    {
      "type": "Feature",
      "properties": {
        "norad_id": 66797,
        "name": "STARLINK-36099",
        "group": "last-30-days",
        "lat": 16.564820869912605,
        "lon": -125.16350672663151,
        "alt_km": 355.457995550184,
        "timestamp": "2025-12-18T14:52:06.781409+00:00",
        "meta_object_name": "STARLINK-36099",
        "meta_object_id": "2025-278G",
        "meta_epoch": "2025-12-18T06:00:02.999808",
        "meta_mean_motion": 15.72024715,
        "meta_eccentricity": 0.00016613,
        "meta_inclination": 42.9991,
        "meta_ra_of_asc_node": 218.4507,
        "meta_arg_of_pericenter": 277.7944,
        "meta_mean_anomaly": 174.4521,
        "meta_ephemeris_type": 0,
        "meta_classification_type": "U",
        "meta_norad_cat_id": 66797,
        "meta_element_set_no": 999,
        "meta_rev_at_epoch": 390,
        "meta_bstar": -0.016394749,
        "meta_mean_motion_dot": -0.01957486,
        "meta_mean_motion_ddot": 0,
        "tle_line1": "1 66797U 25278G   25352.25003472 -.01957486  00000+0 -16395-1 0  9995",
        "tle_line2": "2 66797  42.9991 218.4507 0001661 277.7944 174.4521 15.72024715  3902"
      },
      "geometry": {
        "type": "Point",
        "coordinates": [
          -125.16350672663151,
          16.564820869912605
        ]
      }
    },
    {
      "type": "Feature",
      "properties": {
        "norad_id": 66798,
        "name": "STARLINK-36041",
        "group": "last-30-days",
        "lat": 17.79699706311265,
        "lon": -123.63333627295906,
        "alt_km": 355.4080759396393,
        "timestamp": "2025-12-18T14:52:06.781419+00:00",
        "meta_object_name": "STARLINK-36041",
        "meta_object_id": "2025-278H",
        "meta_epoch": "2025-12-18T06:00:02.999808",
        "meta_mean_motion": 15.72021331,
        "meta_eccentricity": 0.00014844,
        "meta_inclination": 42.9992,
        "meta_ra_of_asc_node": 218.445,
        "meta_arg_of_pericenter": 271.9592,
        "meta_mean_anomaly": 182.2072,
        "meta_ephemeris_type": 0,
        "meta_classification_type": "U",
        "meta_norad_cat_id": 66798,
        "meta_element_set_no": 999,
        "meta_rev_at_epoch": 368,
        "meta_bstar": -0.016361437,
        "meta_mean_motion_dot": -0.01953574,
        "meta_mean_motion_ddot": 0,
        "tle_line1": "1 66798U 25278H   25352.25003472 -.01953574  00000+0 -16361-1 0  9993",
        "tle_line2": "2 66798  42.9992 218.4450 0001484 271.9592 182.2072 15.72021331  3683"
      },
      "geometry": {
        "type": "Point",
        "coordinates": [
          -123.63333627295906,
          17.79699706311265
        ]
      }
    },
    {
      "type": "Feature",
      "properties": {
        "norad_id": 66799,
        "name": "STARLINK-36044",
        "group": "last-30-days",
        "lat": 19.019107218346246,
        "lon": -122.07727076748897,
        "alt_km": 355.1690160032913,
        "timestamp": "2025-12-18T14:52:06.781429+00:00",
        "meta_object_name": "STARLINK-36044",
        "meta_object_id": "2025-278J",
        "meta_epoch": "2025-12-18T06:00:02.999808",
        "meta_mean_motion": 15.7202135,
        "meta_eccentricity": 0.00016668,
        "meta_inclination": 42.9992,
        "meta_ra_of_asc_node": 218.4412,
        "meta_arg_of_pericenter": 277.1797,
        "meta_mean_anomaly": 178.9011,
        "meta_ephemeris_type": 0,
        "meta_classification_type": "U",
        "meta_norad_cat_id": 66799,
        "meta_element_set_no": 999,
        "meta_rev_at_epoch": 384,
        "meta_bstar": -0.016346665,
        "meta_mean_motion_dot": -0.01952163,
        "meta_mean_motion_ddot": 0,
        "tle_line1": "1 66799U 25278J   25352.25003472 -.01952163  00000+0 -16347-1 0  9991",
        "tle_line2": "2 66799  42.9992 218.4412 0001666 277.1797 178.9011 15.72021350  3843"
      },
      "geometry": {
        "type": "Point",
        "coordinates": [
          -122.07727076748897,
          19.019107218346246
        ]
      }
    },
    {
      "type": "Feature",
      "properties": {
        "norad_id": 66800,
        "name": "STARLINK-35996",
        "group": "last-30-days",
        "lat": 21.421105052580863,
        "lon": -118.8979846350214,
        "alt_km": 354.8969813465101,
        "timestamp": "2025-12-18T14:52:06.781439+00:00",
        "meta_object_name": "STARLINK-35996",
        "meta_object_id": "2025-278K",
        "meta_epoch": "2025-12-18T06:00:02.999808",
        "meta_mean_motion": 15.72023701,
        "meta_eccentricity": 0.00016412,
        "meta_inclination": 42.9988,
        "meta_ra_of_asc_node": 218.4315,
        "meta_arg_of_pericenter": 275.8935,
        "meta_mean_anomaly": 184.0212,
        "meta_ephemeris_type": 0,
        "meta_classification_type": "U",
        "meta_norad_cat_id": 66800,
        "meta_element_set_no": 999,
        "meta_rev_at_epoch": 363,
        "meta_bstar": -0.016381275,
        "meta_mean_motion_dot": -0.01955973,
        "meta_mean_motion_ddot": 0,
        "tle_line1": "1 66800U 25278K   25352.25003472 -.01955973  00000+0 -16381-1 0  9994",
        "tle_line2": "2 66800  42.9988 218.4315 0001641 275.8935 184.0212 15.72023701  3635"
      },
      "geometry": {
        "type": "Point",
        "coordinates": [
          -118.8979846350214,
          21.421105052580863
        ]
      }
    }
  ]
}